STARLINK-31152          
1 58734U 24005G   26068.46665831 -.00003519  00000+0 -12158-3 0  9998
2 58734  42.9985 220.6599 0001346 280.6789  79.3910 15.26736091120410
FLOCK 4G-15             
1 62678U 25009BX  26068.71779869  .00012647  00000+0  47575-3 0  9991
2 62678  97.4054 151.1927 0003699 316.8208  43.2740 15.27266411121358
